STARLINK-36332          
1 67862U 26034N   26080.54466079  .00257276  00000+0  12647-2 0  9991
2 67862  53.1573 151.8386 0000499  96.4590 263.6490 15.80938116  5818
STARLINK-36835          
1 67863U 26034P   26080.48068791  .00155978  00000+0  77788-3 0  9998
2 67863  53.1588 152.1497 0001169  92.6396 267.4761 15.80921271  5805
STARLINK-36831          
1 67864U 26034Q   26080.47994207  .00284984  00000+0  13952-2 0  9990
2 67864  53.1584 152.1452 0002081  65.7642 294.3598 15.80951416  5803
STARLINK-36738          
1 67865U 26034R   26080.60563253  .00310315  00000+0  15148-2 0  9996
2 67865  53.1585 151.5063 0001433  79.5716 280.5469 15.80946678  5821
STARLINK-36780          
1 67866U 26034S   26080.47844000  .00237392  00000+0  11703-2 0  9990
2 67866  53.1585 152.1348 0000887  53.9510 306.1595 15.80932771  5807
STARLINK-36761          
1 67867U 26034T   26080.47768782  .00207761  00000+0  10282-2 0  9991
2 67867  53.1589 152.1290 0001939  98.6453 261.4789 15.80931392  5805
STARLINK-36762          
1 67868U 26034U   26080.47693736  .00294377  00000+0  14442-2 0  9999
2 67868  53.1583 152.1242 0001513  87.0137 273.1059 15.80881472  5809
STARLINK-36779          
1 67869U 26034V   26080.47618878  .00178292  00000+0  88622-3 0  9993
2 67869  53.1598 152.1192 0001154 110.8806 249.2341 15.80924551  5803
STARLINK-36770          
1 67870U 26034W   26080.41146757  .00318554  00000+0  15589-2 0  9999
2 67870  53.1584 152.4249 0002104  25.6145 334.4982 15.80869910  5794
STARLINK-36769          
1 67871U 26034X   26080.47544243  .00426038  00000+0  20584-2 0  9996
2 67871  53.1588 152.1137 0001573  92.4524 267.6679 15.80861645  5803
STARLINK-36786          
1 67872U 26034Y   26080.47394172  .00461131  00000+0  22177-2 0  9994
2 67872  53.1583 152.1037 0002390 103.6719 256.4570 15.80869886  5808
STARLINK-36783          
1 67873U 26034Z   26080.47318789  .00157868  00000+0  78765-3 0  9999
2 67873  53.1594 152.0983 0001282  79.2345 280.8822 15.80905571  5805
